NORAD_CAT_ID,OBJECT_NAME,OBJECT_TYPE,EPOCH,MEAN_MOTION,ECCENTRICITY,INCLINATION,RA_OF_ASC_NODE,ARG_OF_PERICENTER,MEAN_ANOMALY,BSTAR,MEAN_MOTION_DOT,MEAN_MOTION_DDOT,TLE_LINE0,TLE_LINE1,TLE_LINE2,SEMIMAJOR_AXIS,PERIOD,APOGEE,PERIGEE,DECAYED
54799.0,STARLINK-5421,PAYLOAD,2023-09-28 14:15:45,15.08840112,0.0001529,53.2161,68.3408,96.8586,263.258,0.00016826,2.391e-05,0.0,0 STARLINK-5421,1 54799U 22175AT  23271.59427741  .00002391  00000-0  16826-3 0  9996,2 54799  53.2161  68.3408 0001529  96.8586 263.2580 15.08840112 45445,6917.88,95.438,540.803,538.687,0.0
54799.0,STARLINK-5421,PAYLOAD,2023-09-28 20:37:17,15.08843355,0.0001527,53.2168,67.151,98.1008,262.0158,0.00018362,2.636e-05,0.0,0 STARLINK-5421,1 54799U 22175AT  23271.85923552  .00002636  00000-0  18362-3 0  9995,2 54799  53.2168  67.1510 0001527  98.1008 262.0158 15.08843355 45489,6917.87,95.437,540.791,538.679,0.0
54799.0,STARLINK-5421,PAYLOAD,2023-09-29 14:06:32,15.08841976,0.0001662,53.2171,63.8786,104.3898,255.7278,7.0096e-05,8.28e-06,0.0,0 STARLINK-5421,1 54799U 22175AT  23272.58787533  .00000828  00000-0  70096-4 0  9997,2 54799  53.2171  63.8786 0001662 104.3898 255.7278 15.08841976 45599,6917.874,95.437,540.889,538.59,0.0
54799.0,STARLINK-5421,PAYLOAD,2023-09-29 15:41:55,15.08844652,0.0001676,53.2168,63.5814,104.9465,255.1713,0.00011033,1.469e-05,0.0,0 STARLINK-5421,1 54799U 22175AT  23272.65411388  .00001469  00000-0  11033-3 0  9994,2 54799  53.2168  63.5814 0001676 104.9465 255.1713 15.08844652 43449,6917.866,95.437,540.891,538.572,0.0
54799.0,STARLINK-5421,PAYLOAD,2023-09-30 17:08:05,15.08847205,0.00013,53.2168,58.8286,83.7487,276.3653,0.00010289,1.35e-05,0.0,0 STARLINK-5421,1 54799U 22175AT  23273.71395347  .00001350  00000-0  10289-3 0  9999,2 54799  53.2168  58.8286 0001300  83.7487 276.3653 15.08847205 43604,6917.858,95.437,540.623,538.824,0.0
54799.0,STARLINK-5421,PAYLOAD,2023-10-01 09:01:57,15.08842552,0.0001511,53.2187,55.8579,68.2182,291.8971,0.00015705,2.213e-05,0.0,0 STARLINK-5421,1 54799U 22175AT  23274.37635707  .00002213  00000-0  15705-3 0  9996,2 54799  53.2187  55.8579 0001511  68.2182 291.8971 15.08842552 43707,6917.873,95.437,540.783,538.692,0.0
54799.0,STARLINK-5421,PAYLOAD,2023-10-01 13:48:06,15.08838299,0.0001353,53.2167,54.9631,79.624,280.4904,-4.2438e-06,-3.55e-06,0.0,0 STARLINK-5421,1 54799U 22175AT  23274.57507767 -.00000355  00000-0 -42438-5 0  9994,2 54799  53.2167  54.9631 0001353  79.6240 280.4904 15.08838299 45894,6917.886,95.438,540.687,538.815,0.0
54799.0,STARLINK-5421,PAYLOAD,2023-10-01 16:58:52,15.08844635,0.0001323,53.2167,54.3683,81.7797,278.3345,7.6845e-05,9.35e-06,0.0,0 STARLINK-5421,1 54799U 22175AT  23274.70755365  .00000935  00000-0  76845-4 0  9998,2 54799  53.2167  54.3683 0001323  81.7797 278.3345 15.08844635 45912,6917.866,95.437,540.646,538.816,0.0
54799.0,STARLINK-5421,PAYLOAD,2023-10-02 02:31:12,15.0883148,0.0001261,53.2175,52.5835,84.3651,275.7485,-3.6535e-05,-8.69e-06,0.0,0 STARLINK-5421,1 54799U 22175AT  23275.10500231 -.00000869  00000-0 -36535-4 0  9993,2 54799  53.2175  52.5835 0001261  84.3651 275.7485 15.08831480 43816,6917.906,95.438,540.644,538.899,0.0
54799.0,STARLINK-5421,PAYLOAD,2023-10-02 18:25:04,15.08830833,0.0001782,53.2174,49.6089,85.9037,274.2159,-2.1791e-05,-6.35e-06,0.0,0 STARLINK-5421,1 54799U 22175AT  23275.76740915 -.00000635  00000-0 -21791-4 0  9999,2 54799  53.2174  49.6089 0001782  85.9037 274.2159 15.08830833 46070,6917.908,95.438,541.006,538.541,0.0
54799.0,STARLINK-5421,PAYLOAD,2023-10-03 15:05:04,15.08852193,0.000137,53.2165,45.7424,94.8789,265.236,0.0003389,5.112e-05,0.0,0 STARLINK-5421,1 54799U 22175AT  23276.62851907  .00005112  00000-0  33890-3 0  9994,2 54799  53.2165  45.7424 0001370  94.8789 265.2360 15.08852193 46208,6917.843,95.437,540.656,538.76,0.0
54799.0,STARLINK-5421,PAYLOAD,2023-10-03 18:15:50,15.08858198,0.0001376,53.2166,45.1458,96.2189,263.8959,0.0005485,8.456e-05,0.0,0 STARLINK-5421,1 54799U 22175AT  23276.76099827  .00008456  00000-0  54850-3 0  9997,2 54799  53.2166  45.1458 0001376  96.2189 263.8959 15.08858198 44067,6917.825,95.436,540.642,538.738,0.0
54799.0,STARLINK-5421,PAYLOAD,2023-10-04 13:20:27,15.08856126,0.0001652,53.2189,41.5798,91.9859,268.1322,0.0004153,6.331e-05,0.0,0 STARLINK-5421,1 54799U 22175AT  23277.55587875  .00006331  00000-0  41530-3 0  9991,2 54799  53.2189  41.5798 0001652  91.9859 268.1322 15.08856126 46346,6917.831,95.437,540.839,538.553,0.0
54799.0,STARLINK-5421,PAYLOAD,2023-10-04 18:06:36,15.08865799,0.0001462,53.2177,40.6866,98.9393,261.1765,0.00057978,8.958e-05,0.0,0 STARLINK-5421,1 54799U 22175AT  23277.75459274  .00008958  00000-0  57978-3 0  9994,2 54799  53.2177  40.6866 0001462  98.9393 261.1765 15.08865799 44212,6917.802,95.436,540.678,538.655,0.0
54799.0,STARLINK-5421,PAYLOAD,2023-10-05 08:25:05,15.08838579,0.0001627,53.2179,38.0104,97.3056,262.8121,0.00024345,3.588e-05,0.0,0 STARLINK-5421,1 54799U 22175AT  23278.35075663  .00003588  00000-0  24345-3 0  9993,2 54799  53.2179  38.0104 0001627  97.3056 262.8121 15.08838579 44302,6917.885,95.438,540.875,538.624,0.0
54799.0,STARLINK-5421,PAYLOAD,2023-10-05 13:11:14,15.08844534,0.0001585,53.2182,37.1212,87.4717,272.6456,0.00027539,4.098e-05,0.0,0 STARLINK-5421,1 54799U 22175AT  23278.54947559  .00004098  00000-0  27539-3 0  9991,2 54799  53.2182  37.1212 0001585  87.4717 272.6456 15.08844534 46493,6917.867,95.437,540.828,538.635,0.0
54799.0,STARLINK-5421,PAYLOAD,2023-10-05 14:46:37,15.08850092,0.0001444,53.2179,36.8237,76.9747,283.1407,0.00051815,7.97e-05,0.0,0 STARLINK-5421,1 54799U 22175AT  23278.61571497  .00007970  00000-0  51815-3 0  9999,2 54799  53.2179  36.8237 0001444  76.9747 283.1407 15.08850092 46503,6917.85,95.437,540.713,538.716,0.0
54799.0,STARLINK-5421,PAYLOAD,2023-10-06 08:15:52,15.08834294,0.0001281,53.2181,33.5529,82.9775,277.1362,0.00018674,2.685e-05,0.0,0 STARLINK-5421,1 54799U 22175AT  23279.34436200  .00002685  00000-0  18674-3 0  9996,2 54799  53.2181  33.5529 0001281  82.9775 277.1362 15.08834294 44452,6917.898,95.438,540.649,538.877,0.0
54799.0,STARLINK-5421,PAYLOAD,2023-10-06 14:37:25,15.0884286,0.0001503,53.218,32.365,83.4745,276.6419,0.00061511,9.516e-05,0.0,0 STARLINK-5421,1 54799U 22175AT  23279.60932283  .00009516  00000-0  61511-3 0  9995,2 54799  53.2180  32.3650 0001503  83.4745 276.6419 15.08842860 46652,6917.872,95.437,540.776,538.697,0.0
54799.0,STARLINK-5421,PAYLOAD,2023-10-07 11:17:26,15.08842947,0.0001555,53.2187,28.4999,92.7362,267.3808,0.00036028,5.451e-05,0.0,0 STARLINK-5421,1 54799U 22175AT  23280.47044418  .00005451  00000-0  36028-3 0  9995,2 54799  53.2187  28.4999 0001555  92.7362 267.3808 15.08842947 44626,6917.871,95.437,540.812,538.661,0.0
54799.0,STARLINK-5421,PAYLOAD,2023-10-07 12:52:49,15.08845377,0.0001709,53.2187,28.2024,96.0657,264.053,0.00047106,7.218e-05,0.0,0 STARLINK-5421,1 54799U 22175AT  23280.53668286  .00007218  00000-0  47106-3 0  9999,2 54799  53.2187  28.2024 0001709  96.0657 264.0530 15.08845377 46794,6917.864,95.437,540.911,538.547,0.0
54799.0,STARLINK-5421,PAYLOAD,2023-10-08 07:57:27,15.08829985,0.0001663,53.2182,24.6346,82.1548,277.9633,-0.00015095,-2.689e-05,0.0,0 STARLINK-5421,1 54799U 22175AT  23281.33156762 -.00002689  00000-0 -15095-3 0  9990,2 54799  53.2182  24.6346 0001663  82.1548 277.9633 15.08829985 44758,6917.911,95.438,540.926,538.626,0.0
54799.0,STARLINK-5421,PAYLOAD,2023-10-08 12:43:36,15.08835732,0.0002023,53.2186,23.7423,79.7536,280.3684,-6.8619e-06,-3.97e-06,0.0,0 STARLINK-5421,1 54799U 22175AT  23281.53028725 -.00000397  00000-0 -68619-5 0  9995,2 54799  53.2186  23.7423 0002023  79.7536 280.3684 15.08835732 46942,6917.893,95.438,541.158,538.359,0.0
54799.0,STARLINK-5421,PAYLOAD,2023-10-08 15:54:22,15.08845853,0.0001691,53.2178,23.144,79.541,280.5773,0.00019821,2.868e-05,0.0,0 STARLINK-5421,1 54799U 22175AT  23281.66276214  .00002868  00000-0  19821-3 0  9999,2 54799  53.2178  23.1440 0001691  79.5410 280.5773 15.08845853 44804,6917.862,95.437,540.897,538.558,0.0
54799.0,STARLINK-5421,PAYLOAD,2023-10-08 23:51:18,15.08840362,0.0001735,53.2182,21.6595,85.5039,274.6151,6.2208e-05,7.02e-06,0.0,0 STARLINK-5421,1 54799U 22175AT  23281.99396480  .00000702  00000-0  62208-4 0  9996,2 54799  53.2182  21.6595 0001735  85.5039 274.6151 15.08840362 44855,6917.879,95.438,540.945,538.544,0.0
54799.0,STARLINK-5421,PAYLOAD,2023-10-09 12:34:23,15.08843915,0.0001904,53.2185,19.2813,86.8345,273.2864,0.00014639,2.043e-05,0.0,0 STARLINK-5421,1 54799U 22175AT  23282.52388562  .00002043  00000-0  14639-3 0  9992,2 54799  53.2185  19.2813 0001904  86.8345 273.2864 15.08843915 47098,6917.868,95.437,541.051,538.416,0.0
54799.0,STARLINK-5421,PAYLOAD,2023-10-09 15:45:09,15.08854695,0.0001816,53.2178,18.684,87.7063,272.4137,0.00045812,7.013e-05,0.0,0 STARLINK-5421,1 54799U 22175AT  23282.65636158  .00007013  00000-0  45812-3 0  9992,2 54799  53.2178  18.6840 0001816  87.7063 272.4137 15.08854695 44955,6917.835,95.437,540.957,538.444,0.0
54799.0,STARLINK-5421,PAYLOAD,2023-10-10 10:49:47,15.08848512,0.0002034,53.2182,15.119,90.1484,269.9741,0.00029011,4.333e-05,0.0,0 STARLINK-5421,1 54799U 22175AT  23283.45124415  .00004333  00000-0  29011-3 0  9994,2 54799  53.2182  15.1190 0002034  90.1484 269.9741 15.08848512 45075,6917.854,95.437,541.126,538.312,0.0
54799.0,STARLINK-5421,PAYLOAD,2023-10-10 12:25:10,15.08853438,0.0002044,53.2177,14.8189,100.4348,259.6874,0.00037304,5.656e-05,0.0,0 STARLINK-5421,1 54799U 22175AT  23283.51748133  .00005656  00000-0  37304-3 0  9993,2 54799  53.2177  14.8189 0002044 100.4348 259.6874 15.08853438 47245,6917.839,95.437,541.118,538.29,0.0
54799.0,STARLINK-5421,PAYLOAD,2023-10-11 10:40:35,15.08836895,0.0001618,53.2187,10.6589,91.6691,268.4487,0.00019176,2.765e-05,0.0,0 STARLINK-5421,1 54799U 22175AT  23284.44484982  .00002765  00000-0  19176-3 0  9990,2 54799  53.2187  10.6589 0001618  91.6691 268.4487 15.08836895 45224,6917.89,95.438,540.874,538.636,0.0
